[{"OBJECT_NAME":"STARLINK-31840","OBJECT_ID":"2024-118Q","EPOCH":"2025-08-19T11:03:33.920928","MEAN_MOTION":15.30201877,"ECCENTRICITY":0.000108,"INCLINATION":53.1586,"RA_OF_ASC_NODE":246.0956,"ARG_OF_PERICENTER":77.587,"MEAN_ANOMALY":282.5251,"EPHEMERIS_TYPE":0,"CLASSIFICATION_TYPE":"U","NORAD_CAT_ID":60127,"ELEMENT_SET_NO":999,"REV_AT_EPOCH":6577,"BSTAR":2.55e-5,"MEAN_MOTION_DOT":3.96e-6,"MEAN_MOTION_DDOT":0},{"OBJECT_NAME":"STARLINK-31813","OBJECT_ID":"2024-118R","EPOCH":"2025-08-19T04:42:47.799648","MEAN_MOTION":15.3019964,"ECCENTRICITY":0.0001222,"INCLINATION":53.1588,"RA_OF_ASC_NODE":247.2879,"ARG_OF_PERICENTER":74.7718,"MEAN_ANOMALY":285.3417,"EPHEMERIS_TYPE":0,"CLASSIFICATION_TYPE":"U","NORAD_CAT_ID":60128,"ELEMENT_SET_NO":999,"REV_AT_EPOCH":6573,"BSTAR":6.2538e-6,"MEAN_MOTION_DOT":-1.74e-6,"MEAN_MOTION_DDOT":0},{"OBJECT_NAME":"STARLINK-31845","OBJECT_ID":"2024-118S","EPOCH":"2025-08-19T04:38:59.951616","MEAN_MOTION":15.30193777,"ECCENTRICITY":0.0001362,"INCLINATION":53.1585,"RA_OF_ASC_NODE":245.1344,"ARG_OF_PERICENTER":78.2648,"MEAN_ANOMALY":281.8505,"EPHEMERIS_TYPE":0,"CLASSIFICATION_TYPE":"U","NORAD_CAT_ID":60129,"ELEMENT_SET_NO":999,"REV_AT_EPOCH":6575,"BSTAR":1.2825e-5,"MEAN_MOTION_DOT":2.1e-7,"MEAN_MOTION_DDOT":0},{"OBJECT_NAME":"STARLINK-31838","OBJECT_ID":"2024-118T","EPOCH":"2025-08-18T17:58:06.195648","MEAN_MOTION":15.30196416,"ECCENTRICITY":0.0001072,"INCLINATION":53.1582,"RA_OF_ASC_NODE":249.4677,"ARG_OF_PERICENTER":81.2222,"MEAN_ANOMALY":278.89,"EPHEMERIS_TYPE":0,"CLASSIFICATION_TYPE":"U","NORAD_CAT_ID":60130,"ELEMENT_SET_NO":999,"REV_AT_EPOCH":6462,"BSTAR":-2.2503e-6,"MEAN_MOTION_DOT":-4.26e-6,"MEAN_MOTION_DDOT":0},{"OBJECT_NAME":"STARLINK-31785","OBJECT_ID":"2024-118U","EPOCH":"2025-08-19T04:32:09.919680","MEAN_MOTION":15.30196795,"ECCENTRICITY":0.0001202,"INCLINATION":53.1585,"RA_OF_ASC_NODE":247.2406,"ARG_OF_PERICENTER":84.4392,"MEAN_ANOMALY":275.6745,"EPHEMERIS_TYPE":0,"CLASSIFICATION_TYPE":"U","NORAD_CAT_ID":60131,"ELEMENT_SET_NO":999,"REV_AT_EPOCH":6572,"BSTAR":-1.3091e-5,"MEAN_MOTION_DOT":-7.47e-6,"MEAN_MOTION_DDOT":0},{"OBJECT_NAME":"STARLINK-31792","OBJECT_ID":"2024-118V","EPOCH":"2025-08-18T18:50:21.093504","MEAN_MOTION":15.30194283,"ECCENTRICITY":0.0001169,"INCLINATION":53.159,"RA_OF_ASC_NODE":246.8115,"ARG_OF_PERICENTER":81.5502,"MEAN_ANOMALY":278.5631,"EPHEMERIS_TYPE":0,"CLASSIFICATION_TYPE":"U","NORAD_CAT_ID":60132,"ELEMENT_SET_NO":999,"REV_AT_EPOCH":6466,"BSTAR":2.97e-5,"MEAN_MOTION_DOT":5.2e-6,"MEAN_MOTION_DDOT":0},{"OBJECT_NAME":"STARLINK-32043","OBJECT_ID":"2024-120A","EPOCH":"2025-08-19T03:00:46.908288","MEAN_MOTION":15.30194377,"ECCENTRICITY":0.0001317,"INCLINATION":53.1597,"RA_OF_ASC_NODE":180.7472,"ARG_OF_PERICENTER":90.3373,"MEAN_ANOMALY":269.7778,"EPHEMERIS_TYPE":0,"CLASSIFICATION_TYPE":"U","NORAD_CAT_ID":60135,"ELEMENT_SET_NO":999,"REV_AT_EPOCH":6522,"BSTAR":1.604e-5,"MEAN_MOTION_DOT":1.16e-6,"MEAN_MOTION_DDOT":0},{"OBJECT_NAME":"STARLINK-32112","OBJECT_ID":"2024-120B","EPOCH":"2025-08-19T03:46:22.315872","MEAN_MOTION":15.30199396,"ECCENTRICITY":0.0001121,"INCLINATION":53.1599,"RA_OF_ASC_NODE":180.9475,"ARG_OF_PERICENTER":87.6511,"MEAN_ANOMALY":272.4618,"EPHEMERIS_TYPE":0,"CLASSIFICATION_TYPE":"U","NORAD_CAT_ID":60136,"ELEMENT_SET_NO":999,"REV_AT_EPOCH":6544,"BSTAR":2.2552e-6,"MEAN_MOTION_DOT":-2.92e-6,"MEAN_MOTION_DDOT":0},{"OBJECT_NAME":"STARLINK-32050","OBJECT_ID":"2024-120C","EPOCH":"2025-08-19T03:55:29.216640","MEAN_MOTION":15.3020011,"ECCENTRICITY":0.000114,"INCLINATION":53.1604,"RA_OF_ASC_NODE":180.9875,"ARG_OF_PERICENTER":92.5503,"MEAN_ANOMALY":267.5628,"EPHEMERIS_TYPE":0,"CLASSIFICATION_TYPE":"U","NORAD_CAT_ID":60137,"ELEMENT_SET_NO":999,"REV_AT_EPOCH":6506,"BSTAR":1.3538e-5,"MEAN_MOTION_DOT":4.2e-7,"MEAN_MOTION_DDOT":0},{"OBJECT_NAME":"STARLINK-32025","OBJECT_ID":"2024-120D","EPOCH":"2025-08-19T04:10:31.203264","MEAN_MOTION":15.30195106,"ECCENTRICITY":0.0001206,"INCLINATION":53.1595,"RA_OF_ASC_NODE":180.3373,"ARG_OF_PERICENTER":107.9206,"MEAN_ANOMALY":252.1926,"EPHEMERIS_TYPE":0,"CLASSIFICATION_TYPE":"U","NORAD_CAT_ID":60138,"ELEMENT_SET_NO":999,"REV_AT_EPOCH":6518,"BSTAR":-7.5494e-6,"MEAN_MOTION_DOT":-5.83e-6,"MEAN_MOTION_DDOT":0},{"OBJECT_NAME":"STARLINK-31867","OBJECT_ID":"2024-120E","EPOCH":"2025-08-19T03:38:47.832864","MEAN_MOTION":15.30182918,"ECCENTRICITY":0.0001143,"INCLINATION":53.1609,"RA_OF_ASC_NODE":180.9179,"ARG_OF_PERICENTER":79.1105,"MEAN_ANOMALY":281.0025,"EPHEMERIS_TYPE":0,"CLASSIFICATION_TYPE":"U","NORAD_CAT_ID":60139,"ELEMENT_SET_NO":999,"REV_AT_EPOCH":6522,"BSTAR":-5.951e-5,"MEAN_MOTION_DOT":-2.12e-5,"MEAN_MOTION_DDOT":0},{"OBJECT_NAME":"STARLINK-31694","OBJECT_ID":"2024-120F","EPOCH":"2025-08-19T06:51:26.103456","MEAN_MOTION":15.30201502,"ECCENTRICITY":0.0001185,"INCLINATION":53.1601,"RA_OF_ASC_NODE":180.3253,"ARG_OF_PERICENTER":83.1696,"MEAN_ANOMALY":276.944,"EPHEMERIS_TYPE":0,"CLASSIFICATION_TYPE":"U","NORAD_CAT_ID":60140,"ELEMENT_SET_NO":999,"REV_AT_EPOCH":6546,"BSTAR":1.9472e-5,"MEAN_MOTION_DOT":2.18e-6,"MEAN_MOTION_DDOT":0},{"OBJECT_NAME":"STARLINK-32036","OBJECT_ID":"2024-120G","EPOCH":"2025-08-19T03:41:48.580800","MEAN_MOTION":15.30200296,"ECCENTRICITY":0.00012,"INCLINATION":53.1601,"RA_OF_ASC_NODE":180.9259,"ARG_OF_PERICENTER":85.5044,"MEAN_ANOMALY":274.6093,"EPHEMERIS_TYPE":0,"CLASSIFICATION_TYPE":"U","NORAD_CAT_ID":60141,"ELEMENT_SET_NO":999,"REV_AT_EPOCH":6544,"BSTAR":1.1699e-5,"MEAN_MOTION_DOT":-1.3e-7,"MEAN_MOTION_DDOT":0},{"OBJECT_NAME":"STARLINK-32031","OBJECT_ID":"2024-120H","EPOCH":"2025-08-19T03:32:41.853696","MEAN_MOTION":15.30151311,"ECCENTRICITY":0.000124,"INCLINATION":53.1596,"RA_OF_ASC_NODE":180.8851,"ARG_OF_PERICENTER":109.836,"MEAN_ANOMALY":250.2774,"EPHEMERIS_TYPE":0,"CLASSIFICATION_TYPE":"U","NORAD_CAT_ID":60142,"ELEMENT_SET_NO":999,"REV_AT_EPOCH":6544,"BSTAR":0.00034463,"MEAN_MOTION_DOT":9.846e-5,"MEAN_MOTION_DDOT":0},{"OBJECT_NAME":"STARLINK-32027","OBJECT_ID":"2024-120J","EPOCH":"2025-08-19T04:04:26.495040","MEAN_MOTION":15.30205786,"ECCENTRICITY":0.0001622,"INCLINATION":53.1602,"RA_OF_ASC_NODE":180.2729,"ARG_OF_PERICENTER":101.0096,"MEAN_ANOMALY":259.1088,"EPHEMERIS_TYPE":0,"CLASSIFICATION_TYPE":"U","NORAD_CAT_ID":60143,"ELEMENT_SET_NO":999,"REV_AT_EPOCH":6545,"BSTAR":-2.7355e-5,"MEAN_MOTION_DOT":-1.17e-5,"MEAN_MOTION_DDOT":0},{"OBJECT_NAME":"STARLINK-32033","OBJECT_ID":"2024-120K","EPOCH":"2025-08-19T03:28:07.977792","MEAN_MOTION":15.30199333,"ECCENTRICITY":0.0001298,"INCLINATION":53.1601,"RA_OF_ASC_NODE":180.8633,"ARG_OF_PERICENTER":82.2419,"MEAN_ANOMALY":277.8729,"EPHEMERIS_TYPE":0,"CLASSIFICATION_TYPE":"U","NORAD_CAT_ID":60144,"ELEMENT_SET_NO":999,"REV_AT_EPOCH":6522,"BSTAR":2.8005e-5,"MEAN_MOTION_DOT":4.7e-6,"MEAN_MOTION_DDOT":0},{"OBJECT_NAME":"STARLINK-32029","OBJECT_ID":"2024-120L","EPOCH":"2025-08-19T03:19:01.248096","MEAN_MOTION":15.30194472,"ECCENTRICITY":0.0001385,"INCLINATION":53.1601,"RA_OF_ASC_NODE":180.8242,"ARG_OF_PERICENTER":80.1316,"MEAN_ANOMALY":279.9841,"EPHEMERIS_TYPE":0,"CLASSIFICATION_TYPE":"U","NORAD_CAT_ID":60145,"ELEMENT_SET_NO":999,"REV_AT_EPOCH":6528,"BSTAR":2.9471e-5,"MEAN_MOTION_DOT":5.14e-6,"MEAN_MOTION_DDOT":0},{"OBJECT_NAME":"STARLINK-32127","OBJECT_ID":"2024-120M","EPOCH":"2025-08-19T04:01:24.266208","MEAN_MOTION":15.30196187,"ECCENTRICITY":0.000115,"INCLINATION":53.1597,"RA_OF_ASC_NODE":180.301,"ARG_OF_PERICENTER":97.6272,"MEAN_ANOMALY":262.4859,"EPHEMERIS_TYPE":0,"CLASSIFICATION_TYPE":"U","NORAD_CAT_ID":60146,"ELEMENT_SET_NO":999,"REV_AT_EPOCH":6523,"BSTAR":-6.57e-7,"MEAN_MOTION_DOT":-3.79e-6,"MEAN_MOTION_DDOT":0},{"OBJECT_NAME":"STARLINK-32019","OBJECT_ID":"2024-120N","EPOCH":"2025-08-19T04:15:04.819104","MEAN_MOTION":15.30194707,"ECCENTRICITY":0.0001267,"INCLINATION":53.1602,"RA_OF_ASC_NODE":180.355,"ARG_OF_PERICENTER":98.5047,"MEAN_ANOMALY":261.6097,"EPHEMERIS_TYPE":0,"CLASSIFICATION_TYPE":"U","NORAD_CAT_ID":60147,"ELEMENT_SET_NO":999,"REV_AT_EPOCH":6529,"BSTAR":-2.5163e-6,"MEAN_MOTION_DOT":-4.34e-6,"MEAN_MOTION_DDOT":0},{"OBJECT_NAME":"STARLINK-32021","OBJECT_ID":"2024-120P","EPOCH":"2025-08-19T05:58:22.304928","MEAN_MOTION":15.30201938,"ECCENTRICITY":0.0001265,"INCLINATION":53.1601,"RA_OF_ASC_NODE":170.1434,"ARG_OF_PERICENTER":82.8778,"MEAN_ANOMALY":277.2367,"EPHEMERIS_TYPE":0,"CLASSIFICATION_TYPE":"U","NORAD_CAT_ID":60148,"ELEMENT_SET_NO":999,"REV_AT_EPOCH":6560,"BSTAR":2.6478e-5,"MEAN_MOTION_DOT":4.25e-6,"MEAN_MOTION_DDOT":0},{"OBJECT_NAME":"STARLINK-32022","OBJECT_ID":"2024-120Q","EPOCH":"2025-08-18T14:32:55.040640","MEAN_MOTION":15.30191031,"ECCENTRICITY":0.0001464,"INCLINATION":53.1599,"RA_OF_ASC_NODE":183.1921,"ARG_OF_PERICENTER":86.0854,"MEAN_ANOMALY":274.0314,"EPHEMERIS_TYPE":0,"CLASSIFICATION_TYPE":"U","NORAD_CAT_ID":60149,"ELEMENT_SET_NO":999,"REV_AT_EPOCH":6536,"BSTAR":1.5209e-5,"MEAN_MOTION_DOT":9.1e-7,"MEAN_MOTION_DDOT":0},{"OBJECT_NAME":"STARLINK-32014","OBJECT_ID":"2024-120R","EPOCH":"2025-08-19T02:51:39.994560","MEAN_MOTION":15.30189306,"ECCENTRICITY":6.33e-5,"INCLINATION":53.1586,"RA_OF_ASC_NODE":180.7047,"ARG_OF_PERICENTER":119.4051,"MEAN_ANOMALY":240.7013,"EPHEMERIS_TYPE":0,"CLASSIFICATION_TYPE":"U","NORAD_CAT_ID":60150,"ELEMENT_SET_NO":999,"REV_AT_EPOCH":6528,"BSTAR":6.2228e-6,"MEAN_MOTION_DOT":-1.74e-6,"MEAN_MOTION_DDOT":0},{"OBJECT_NAME":"STARLINK-32004","OBJECT_ID":"2024-120S","EPOCH":"2025-08-19T06:04:19.710624","MEAN_MOTION":15.30194121,"ECCENTRICITY":0.0001662,"INCLINATION":53.1601,"RA_OF_ASC_NODE":180.1173,"ARG_OF_PERICENTER":91.9809,"MEAN_ANOMALY":268.1382,"EPHEMERIS_TYPE":0,"CLASSIFICATION_TYPE":"U","NORAD_CAT_ID":60151,"ELEMENT_SET_NO":999,"REV_AT_EPOCH":6546,"BSTAR":2.176e-5,"MEAN_MOTION_DOT":2.85e-6,"MEAN_MOTION_DDOT":0}]
